ONEWEB-0647             
1 56079U 23043AK  23258.57038522  .00000041  00000+0  75953-4 0  9998
2 56079  87.8951  99.4624 0001992 101.8078 258.3276 13.15553651 24203
ONEWEB-0651             
1 56080U 23043AL  23258.56617976  .00000139  00000+0  33551-3 0  9990
2 56080  87.8948  99.4377 0001415 100.8283 259.3007 13.15550321 24207
ONEWEB-0718             
1 56081U 23043AM  23258.63802371  .00000164  00000+0  40089-3 0  9996
2 56081  87.8878  99.4625 0001753  62.2184 297.9124 13.15552003 25132
ONEWEB-0561             
1 56710U 23068A   23258.65675167 -.00013981  00000+0 -28134-1 0  9993
2 56710  88.0840 107.9967 0003446  89.9159 270.2377 13.34297225 17213
ONEWEB-0668             
1 56711U 23068B   23258.56574724  .00001634  00000+0  22031-3 0  9993
2 56711  86.7179  91.9965 0015572 161.4204 198.7589 14.78451822 17598
ONEWEB-0676             
1 56712U 23068C   23258.57701248  .00001624  00000+0  21947-3 0  9992
2 56712  86.7135  91.9388 0015482 163.2131 196.9606 14.78332968 17598
ONEWEB-0677             
1 56713U 23068D   23258.80945164  .00007732  00000+0  15349-1 0  9999
2 56713  88.0857 105.8162 0002690  85.4064 274.7384 13.34856768 17416
